{
  "norad_id": 57291,
  "name": "STARLINK-30239",
  "history": [
    {
      "epoch": "2026-03-27T10:38:57.312960",
      "apogee_km": 484.0305620919353,
      "perigee_km": 482.1519577943636,
      "latitude_deg": -0.2065902983690013,
      "longitude_deg": -144.302985599963,
      "semi_major_axis_km": 6861.228259943149,
      "eccentricity": 0.0001369,
      "inclination_deg": 43.0011,
      "raan_deg": 122.8259,
      "arg_perigee_deg": 258.4782,
      "mean_anomaly_deg": 101.5916,
      "mean_motion_rev_day": 15.27565919
    }
  ]
}